{"type": "FeatureCollection", "features": [ {"type": "Feature", "properties": {"norad_id": 31256, "name": "FENGYUN 1C DEB", "group": "fengyun-1c-debris", "lat": 19.108540145248895, "lon": 18.584192664524846, "alt_km": 734.4847718241435, "timestamp": "2025-12-13T22:39:29.991677+00:00", "meta": {"OBJECT_NAME": "FENGYUN 1C DEB", "OBJECT_ID": "1999-025BMN", "EPOCH": "2025-12-12T20:15:20.871648", "MEAN_MOTION": 14.03288041, "ECCENTRICITY": 0.03084701, "INCLINATION": 98.6814, "RA_OF_ASC_NODE": 194.4983, "ARG_OF_PERICENTER": 113.6621, "MEAN_ANOMALY": 249.7243, "EPHEMERIS_TYPE": 0, "CLASSIFICATION_TYPE": "U", "NORAD_CAT_ID": 31256, "ELEMENT_SET_NO": 999, "REV_AT_EPOCH": 64983, "BSTAR": 0.0035765382, "MEAN_MOTION_DOT": 8.48e-05, "MEAN_MOTION_DDOT": 0}, "tle": {"line1": "1 31256U 99025BMN 25346.84399157  .00008480  00000+0  35765-2 0  9995", "line2": "2 31256  98.6814 194.4983 0308470 113.6621 249.7243 14.03288041649837"}}, "geometry": {"type": "Point", "coordinates": [18.584192664524846, 19.108540145248895]}}, {"type": "Feature", "properties": {"norad_id": 31258, "name": "FENGYUN 1C DEB", "group": "fengyun-1c-debris", "lat": 26.867947443716965, "lon": 132.49360083626544, "alt_km": 524.2995100783519, "timestamp": "2025-12-13T22:39:29.991688+00:00", "meta": {"OBJECT_NAME": "FENGYUN 1C DEB", "OBJECT_ID": "1999-025BMQ", "EPOCH": "2025-12-12T21:48:17.748864", "MEAN_MOTION": 15.12790487, "ECCENTRICITY": 0.00050409, "INCLINATION": 98.8489, "RA_OF_ASC_NODE": 135.8203, "ARG_OF_PERICENTER": 317.7513, "MEAN_ANOMALY": 192.409, "EPHEMERIS_TYPE": 0, "CLASSIFICATION_TYPE": "U", "NORAD_CAT_ID": 31258, "ELEMENT_SET_NO": 999, "REV_AT_EPOCH": 97113, "BSTAR": 0.012523951, "MEAN_MOTION_DOT": 0.0022668, "MEAN_MOTION_DDOT": 0}, "tle": {"line1": "1 31258U 99025BMQ 25346.90853876  .00226680  00000+0  12524-1 0  9998", "line2": "2 31258  98.8489 135.8203 0005040 317.7513 192.4090 15.12790487971135"}}, "geometry": {"type": "Point", "coordinates": [132.49360083626544, 26.867947443716965]}}, {"type": "Feature", "properties": {"norad_id": 31259, "name": "FENGYUN 1C DEB", "group": "fengyun-1c-debris", "lat": -48.61542515233146, "lon": -123.22096510864547, "alt_km": 810.8138321217612, "timestamp": "2025-12-13T22:39:29.991698+00:00", "meta": {"OBJECT_NAME": "FENGYUN 1C DEB", "OBJECT_ID": "1999-025BMR", "EPOCH": "2025-12-13T04:44:31.101216", "MEAN_MOTION": 14.15032308, "ECCENTRICITY": 0.00657924, "INCLINATION": 99.0094, "RA_OF_ASC_NODE": 66.3984, "ARG_OF_PERICENTER": 194.6805, "MEAN_ANOMALY": 193.4928, "EPHEMERIS_TYPE": 0, "CLASSIFICATION_TYPE": "U", "NORAD_CAT_ID": 31259, "ELEMENT_SET_NO": 999, "REV_AT_EPOCH": 95576, "BSTAR": 0.0025117857, "MEAN_MOTION_DOT": 4.925e-05, "MEAN_MOTION_DDOT": 0}, "tle": {"line1": "1 31259U 99025BMR 25347.19758219  .00004925  00000+0  25118-2 0  9996", "line2": "2 31259  99.0094  66.3984 0065792 194.6805 193.4928 14.15032308955766"}}, "geometry": {"type": "Point", "coordinates": [-123.22096510864547, -48.61542515233146]}}, {"type": "Feature", "properties": {"norad_id": 31260, "name": "FENGYUN 1C DEB", "group": "fengyun-1c-debris", "lat": 45.08501754464117, "lon": -124.16842051686046, "alt_km": 781.3764366827763, "timestamp": "2025-12-13T22:39:29.991709+00:00", "meta": {"OBJECT_NAME": "FENGYUN 1C DEB", "OBJECT_ID": "1999-025BMS", "EPOCH": "2025-12-13T04:46:13.518912", "MEAN_MOTION": 14.36432659, "ECCENTRICITY": 0.00469839, "INCLINATION": 98.9562, "RA_OF_ASC_NODE": 244.1578, "ARG_OF_PERICENTER": 291.2978, "MEAN_ANOMALY": 222.0603, "EPHEMERIS_TYPE": 0, "CLASSIFICATION_TYPE": "U", "NORAD_CAT_ID": 31260, "ELEMENT_SET_NO": 999, "REV_AT_EPOCH": 97200, "BSTAR": 0.0015680058, "MEAN_MOTION_DOT": 4.609e-05, "MEAN_MOTION_DDOT": 0}, "tle": {"line1": "1 31260U 99025BMS 25347.19876758  .00004609  00000+0  15680-2 0  9999", "line2": "2 31260  98.9562 244.1578 0046983 291.2978 222.0603 14.36432659972008"}}, "geometry": {"type": "Point", "coordinates": [-124.16842051686046, 45.08501754464117]}}, {"type": "Feature", "properties": {"norad_id": 31261, "name": "FENGYUN 1C DEB", "group": "fengyun-1c-debris", "lat": 73.84706219418844, "lon": -91.82335415877189, "alt_km": 782.7404019586002, "timestamp": "2025-12-13T22:39:29.991719+00:00", "meta": {"OBJECT_NAME": "FENGYUN 1C DEB", "OBJECT_ID": "1999-025BMT", "EPOCH": "2025-12-13T07:17:36.200544", "MEAN_MOTION": 14.40092738, "ECCENTRICITY": 0.00499745, "INCLINATION": 99.0155, "RA_OF_ASC_NODE": 300.7433, "ARG_OF_PERICENTER": 231.1909, "MEAN_ANOMALY": 128.481, "EPHEMERIS_TYPE": 0, "CLASSIFICATION_TYPE": "U", "NORAD_CAT_ID": 31261, "ELEMENT_SET_NO": 999, "REV_AT_EPOCH": 97358, "BSTAR": 0.0016949797, "MEAN_MOTION_DOT": 5.383e-05, "MEAN_MOTION_DDOT": 0}, "tle": {"line1": "1 31261U 99025BMT 25347.30389121  .00005383  00000+0  16950-2 0  9997", "line2": "2 31261  99.0155 300.7433 0049974 231.1909 128.4810 14.40092738973586"}}, "geometry": {"type": "Point", "coordinates": [-91.82335415877189, 73.84706219418844]}}, {"type": "Feature", "properties": {"norad_id": 31262, "name": "FENGYUN 1C DEB", "group": "fengyun-1c-debris", "lat": -0.20997118517296473, "lon": 71.45211248517009, "alt_km": 837.4295956246615, "timestamp": "2025-12-13T22:39:29.991733+00:00", "meta": {"OBJECT_NAME": "FENGYUN 1C DEB", "OBJECT_ID": "1999-025BMU", "EPOCH": "2025-12-12T04:27:55.392192", "MEAN_MOTION": 14.18179117, "ECCENTRICITY": 0.00551106, "INCLINATION": 99.0033, "RA_OF_ASC_NODE": 69.6362, "ARG_OF_PERICENTER": 99.6223, "MEAN_ANOMALY": 290.2815, "EPHEMERIS_TYPE": 0, "CLASSIFICATION_TYPE": "U", "NORAD_CAT_ID": 31262, "ELEMENT_SET_NO": 999, "REV_AT_EPOCH": 95701, "BSTAR": 0.0026931528, "MEAN_MOTION_DOT": 5.576e-05, "MEAN_MOTION_DDOT": 0}, "tle": {"line1": "1 31262U 99025BMU 25346.18605778  .00005576  00000+0  26932-2 0  9997", "line2": "2 31262  99.0033  69.6362 0055110  99.6223 290.2815 14.18179117957014"}}, "geometry": {"type": "Point", "coordinates": [71.45211248517009, -0.20997118517296473]}}, {"type": "Feature", "properties": {"norad_id": 31263, "name": "FENGYUN 1C DEB", "group": "fengyun-1c-debris", "lat": -70.9433739948958, "lon": 65.17788138900409, "alt_km": 412.6801068865543, "timestamp": "2025-12-13T22:39:29.991744+00:00", "meta": {"OBJECT_NAME": "FENGYUN 1C DEB", "OBJECT_ID": "1999-025BMV", "EPOCH": "2025-12-13T07:41:23.477568", "MEAN_MOTION": 15.5532409, "ECCENTRICITY": 0.00241251, "INCLINATION": 98.9847, "RA_OF_ASC_NODE": 271.6551, "ARG_OF_PERICENTER": 120.5004, "MEAN_ANOMALY": 239.8632, "EPHEMERIS_TYPE": 0, "CLASSIFICATION_TYPE": "U", "NORAD_CAT_ID": 31263, "ELEMENT_SET_NO": 999, "REV_AT_EPOCH": 97175, "BSTAR": 0.026389577, "MEAN_MOTION_DOT": 0.02016968, "MEAN_MOTION_DDOT": 0}, "tle": {"line1": "1 31263U 99025BMV 25347.32041062  .02016968  00000+0  26390-1 0  9991", "line2": "2 31263  98.9847 271.6551 0024125 120.5004 239.8632 15.55324090971751"}}, "geometry": {"type": "Point", "coordinates": [65.17788138900409, -70.9433739948958]}}, {"type": "Feature", "properties": {"norad_id": 31264, "name": "FENGYUN 1C DEB", "group": "fengyun-1c-debris", "lat": -24.708688914729684, "lon": -110.80426815011484, "alt_km": 834.9252737855322, "timestamp": "2025-12-13T22:39:29.991754+00:00", "meta": {"OBJECT_NAME": "FENGYUN 1C DEB", "OBJECT_ID": "1999-025BMW", "EPOCH": "2025-12-12T16:26:24.698112", "MEAN_MOTION": 14.18590363, "ECCENTRICITY": 0.00011064, "INCLINATION": 99.1141, "RA_OF_ASC_NODE": 243.6667, "ARG_OF_PERICENTER": 10.4985, "MEAN_ANOMALY": 18.0629, "EPHEMERIS_TYPE": 0, "CLASSIFICATION_TYPE": "U", "NORAD_CAT_ID": 31264, "ELEMENT_SET_NO": 999, "REV_AT_EPOCH": 96428, "BSTAR": 0.00086397859, "MEAN_MOTION_DOT": 1.742e-05, "MEAN_MOTION_DDOT": 0}, "tle": {"line1": "1 31264U 99025BMW 25346.68500808  .00001742  00000+0  86398-3 0  9996", "line2": "2 31264  99.1141 243.6667 0001106  10.4985  18.0629 14.18590363964287"}}, "geometry": {"type": "Point", "coordinates": [-110.80426815011484, -24.708688914729684]}}, {"type": "Feature", "properties": {"norad_id": 31266, "name": "FENGYUN 1C DEB", "group": "fengyun-1c-debris", "lat": 24.245229350860996, "lon": -33.17453645400583, "alt_km": 838.0681211792744, "timestamp": "2025-12-13T22:39:29.991765+00:00", "meta": {"OBJECT_NAME": "FENGYUN 1C DEB", "OBJECT_ID": "1999-025BMY", "EPOCH": "2025-12-13T05:44:02.433120", "MEAN_MOTION": 14.22336445, "ECCENTRICITY": 0.01296995, "INCLINATION": 99.257, "RA_OF_ASC_NODE": 330.2974, "ARG_OF_PERICENTER": 282.7808, "MEAN_ANOMALY": 91.6538, "EPHEMERIS_TYPE": 0, "CLASSIFICATION_TYPE": "U", "NORAD_CAT_ID": 31266, "ELEMENT_SET_NO": 999, "REV_AT_EPOCH": 97213, "BSTAR": 0.00052457623, "MEAN_MOTION_DOT": 1.221e-05, "MEAN_MOTION_DDOT": 0}, "tle": {"line1": "1 31266U 99025BMY 25347.23891705  .00001221  00000+0  52458-3 0  9991", "line2": "2 31266  99.2570 330.2974 0129699 282.7808  91.6538 14.22336445972139"}}, "geometry": {"type": "Point", "coordinates": [-33.17453645400583, 24.245229350860996]}}, {"type": "Feature", "properties": {"norad_id": 31268, "name": "FENGYUN 1C DEB", "group": "fengyun-1c-debris", "lat": 78.06696035555198, "lon": -103.07438277533565, "alt_km": 859.2653532201302, "timestamp": "2025-12-13T22:39:29.991775+00:00", "meta": {"OBJECT_NAME": "FENGYUN 1C DEB", "OBJECT_ID": "1999-025BNA", "EPOCH": "2025-12-11T01:53:37.100832", "MEAN_MOTION": 14.06406116, "ECCENTRICITY": 0.00493614, "INCLINATION": 98.7549, "RA_OF_ASC_NODE": 27.3376, "ARG_OF_PERICENTER": 188.3017, "MEAN_ANOMALY": 171.734, "EPHEMERIS_TYPE": 0, "CLASSIFICATION_TYPE": "U", "NORAD_CAT_ID": 31268, "ELEMENT_SET_NO": 999, "REV_AT_EPOCH": 62009, "BSTAR": 0.00083019137, "MEAN_MOTION_DOT": 1.344e-05, "MEAN_MOTION_DDOT": 0}, "tle": {"line1": "1 31268U 99025BNA 25345.07890163  .00001344  00000+0  83019-3 0  9993", "line2": "2 31268  98.7549  27.3376 0049361 188.3017 171.7340 14.06406116620092"}}, "geometry": {"type": "Point", "coordinates": [-103.07438277533565, 78.06696035555198]}}]}